GPS_BIIF-8 -PRN-03
1 40294U 14068A   23124.17477965 -.00000016  00000+0  00000+0 0  9992
2 40294  56.0754  75.2957 0045537  56.5443 303.8610  2.00563500 62341
